{
  "type": "FeatureCollection",
  "generator": "overpass-turbo",
  "copyright": "The data included in this document is from www.openstreetmap.org. The data is made available under ODbL.",
  "timestamp": "2026-08-08T04:46:06Z",
  "features": [
    {
      "type": "Feature",
      "properties": {
        "@id": "relation/1651016",
        "natural": "water",
        "type": "multipolygon",
        "water": "river"
      },
      "geometry": {
        "type": "Polygon",
        "coordinates": [
          [
            [
              -88.3128862,
              41.9121027
            ],
            [
              -88.3128496,
              41.9120555
            ],
            [
              -88.3128246,
              41.9120233
            ],
            [
              -88.3127807,
              41.9119663
            ],
            [
              -88.3126225,
              41.9117632
            ],
            [
              -88.3123662,
              41.9114645
            ],
            [
              -88.3122019,
              41.9113253
            ],
            [
              -88.3121583,
              41.9112973
            ],
            [
              -88.3121409,
              41.9112539
            ],
            [
              -88.3121281,
              41.911227
            ],
            [
              -88.3121067,
              41.911197
            ],
            [
              -88.3120939,
              41.9111686
            ],
            [
              -88.3120947,
              41.911145
            ],
            [
              -88.3119938,
              41.9110462
            ],
            [
              -88.3118839,
              41.9109055
            ],
            [
              -88.3115004,
              41.9104518
            ],
            [
              -88.3111996,
              41.9100644
            ],
            [
              -88.3108394,
              41.909617
            ],
            [
              -88.3106892,
              41.9094441
            ],
            [
              -88.3105726,
              41.9092825
            ],
            [
              -88.3104207,
              41.909139
            ],
            [
              -88.3103904,
              41.9091004
            ],
            [
              -88.3103626,
              41.909065
            ],
            [
              -88.3103116,
              41.9089926
            ],
            [
              -88.3102821,
              41.9089188
            ],
            [
              -88.3087103,
              41.9080172
            ],
            [
              -88.3086318,
              41.9079221
            ],
            [
              -88.3084322,
              41.9077732
            ],
            [
              -88.3083102,
              41.907692
            ],
            [
              -88.3082384,
              41.9076186
            ],
            [
              -88.3080998,
              41.9075256
            ],
            [
              -88.3077426,
              41.9070984
            ],
            [
              -88.3074636,
              41.9067339
            ],
            [
              -88.3073331,
              41.9065236
            ],
            [
              -88.3072995,
              41.9064882
            ],
            [
              -88.307287,
              41.9064492
            ],
            [
              -88.3072894,
              41.9064185
            ],
            [
              -88.3072543,
              41.906352
            ],
            [
              -88.3072032,
              41.9062413
            ],
            [
              -88.3070415,
              41.9059838
            ],
            [
              -88.3069111,
              41.9057726
            ],
            [
              -88.3068958,
              41.905686
            ],
            [
              -88.306735,
              41.9054625
            ],
            [
              -88.306513,
              41.9051753
            ],
            [
              -88.3063387,
              41.9049341
            ],
            [
              -88.3061786,
              41.9047024
            ],
            [
              -88.3054115,
              41.9037551
            ],
            [
              -88.3050381,
              41.9031798
            ],
            [
              -88.3048806,
              41.9028687
            ],
            [
              -88.3047786,
              41.9025571
            ],
            [
              -88.3046794,
              41.9023558
            ],
            [
              -88.3045469,
              41.9022822
            ],
            [
              -88.3044358,
              41.902078
            ],
            [
              -88.3043503,
              41.9018982
            ],
            [
              -88.3040609,
              41.9015986
            ],
            [
              -88.3034601,
              41.9004646
            ],
            [
              -88.3036318,
              41.900265
            ],
            [
              -88.3036747,
              41.89969
            ],
            [
              -88.3035405,
              41.898884
            ],
            [
              -88.3035245,
              41.8987876
            ],
            [
              -88.3033715,
              41.8982227
            ],
            [
              -88.3032563,
              41.8977974
            ],
            [
              -88.3028807,
              41.896871
            ],
            [
              -88.3026662,
              41.8959766
            ],
            [
              -88.3025696,
              41.8950342
            ],
            [
              -88.3025267,
              41.894579
            ],
            [
              -88.3025136,
              41.8944071
            ],
            [
              -88.3024945,
              41.8942755
            ],
            [
              -88.3025803,
              41.8935568
            ],
            [
              -88.3025374,
              41.8932852
            ],
            [
              -88.3025958,
              41.8928754
            ],
            [
              -88.302572,
              41.8925123
            ],
            [
              -88.3025482,
              41.8922789
            ],
            [
              -88.3025524,
              41.8919431
            ],
            [
              -88.3025509,
              41.8916592
            ],
            [
              -88.3025035,
              41.891519
            ],
            [
              -88.3024919,
              41.8914848
            ],
            [
              -88.3025696,
              41.8913764
            ],
            [
              -88.302516,
              41.8911528
            ],
            [
              -88.3026559,
              41.8904892
            ],
            [
              -88.3027393,
              41.8893674
            ],
            [
              -88.3028973,
              41.888872
            ],
            [
              -88.3028807,
              41.8886449
            ],
            [
              -88.3028613,
              41.8885738
            ],
            [
              -88.3028287,
              41.8884547
            ],
            [
              -88.302878,
              41.8882822
            ],
            [
              -88.3029087,
              41.888173
            ],
            [
              -88.3029481,
              41.8881416
            ],
            [
              -88.3029771,
              41.8881184
            ],
            [
              -88.3028979,
              41.8880233
            ],
            [
              -88.3028711,
              41.8879017
            ],
            [
              -88.3028842,
              41.8878463
            ],
            [
              -88.302926,
              41.8876791
            ],
            [
              -88.3028913,
              41.8876692
            ],
            [
              -88.3029218,
              41.8875369
            ],
            [
              -88.3028791,
              41.8874914
            ],
            [
              -88.3029377,
              41.8872617
            ],
            [
              -88.302955,
              41.8871939
            ],
            [
              -88.3030079,
              41.8870615
            ],
            [
              -88.3030444,
              41.8870705
            ],
            [
              -88.3031427,
              41.8868496
            ],
            [
              -88.3032893,
              41.8865791
            ],
            [
              -88.3033594,
              41.8862768
            ],
            [
              -88.3033554,
              41.8861629
            ],
            [
              -88.3033657,
              41.8860922
            ],
            [
              -88.3033975,
              41.8860015
            ],
            [
              -88.3034238,
              41.8859621
            ],
            [
              -88.3034408,
              41.8855772
            ],
            [
              -88.3034446,
              41.8853557
            ],
            [
              -88.3034511,
              41.8850479
            ],
            [
              -88.3035823,
              41.8845269
            ],
            [
              -88.3037111,
              41.8842805
            ],
            [
              -88.3038049,
              41.8839988
            ],
            [
              -88.3039362,
              41.8838241
            ],
            [
              -88.3040562,
              41.8835852
            ],
            [
              -88.3041484,
              41.8833788
            ],
            [
              -88.3042898,
              41.8830129
            ],
            [
              -88.3043789,
              41.8827503
            ],
            [
              -88.3044145,
              41.8826942
            ],
            [
              -88.3044361,
              41.8826
            ],
            [
              -88.3048173,
              41.8818195
            ],
            [
              -88.304801,
              41.8817685
            ],
            [
              -88.3047317,
              41.8815512
            ],
            [
              -88.3048112,
              41.8814417
            ],
            [
              -88.3049139,
              41.8813003
            ],
            [
              -88.3049841,
              41.8811025
            ],
            [
              -88.3049951,
              41.8809938
            ],
            [
              -88.3050774,
              41.8809089
            ],
            [
              -88.3049782,
              41.880154
            ],
            [
              -88.3049675,
              41.8796188
            ],
            [
              -88.3050533,
              41.8790436
            ],
            [
              -88.3051231,
              41.8789318
            ],
            [
              -88.305166,
              41.8787321
            ],
            [
              -88.3054288,
              41.8785124
            ],
            [
              -88.3059446,
              41.8781652
            ],
            [
              -88.3062745,
              41.8779531
            ],
            [
              -88.306495,
              41.8777953
            ],
            [
              -88.3066383,
              41.8776789
            ],
            [
              -88.3069293,
              41.8774301
            ],
            [
              -88.3071441,
              41.877174
            ],
            [
              -88.3072847,
              41.8770089
            ],
            [
              -88.3074004,
              41.8768818
            ],
            [
              -88.3074652,
              41.8767542
            ],
            [
              -88.3075945,
              41.8765673
            ],
            [
              -88.3077785,
              41.8759361
            ],
            [
              -88.3080896,
              41.8754379
            ],
            [
              -88.3082773,
              41.8751373
            ],
            [
              -88.3084597,
              41.8747218
            ],
            [
              -88.3084973,
              41.8745101
            ],
            [
              -88.3086582,
              41.8740188
            ],
            [
              -88.3087655,
              41.8736513
            ],
            [
              -88.3088439,
              41.8734675
            ],
            [
              -88.3089766,
              41.873263
            ],
            [
              -88.3090765,
              41.8730324
            ],
            [
              -88.3091409,
              41.8727382
            ],
            [
              -88.3091839,
              41.8725409
            ],
            [
              -88.3094243,
              41.8720875
            ],
            [
              -88.3094161,
              41.8719162
            ],
            [
              -88.3095688,
              41.8717424
            ],
            [
              -88.3096621,
              41.8717263
            ],
            [
              -88.3097286,
              41.8716858
            ],
            [
              -88.3098277,
              41.8715303
            ],
            [
              -88.3099879,
              41.871288
            ],
            [
              -88.3101638,
              41.8710463
            ],
            [
              -88.3103272,
              41.870646
            ],
            [
              -88.3103594,
              41.8704813
            ],
            [
              -88.3104038,
              41.8702877
            ],
            [
              -88.310466,
              41.8699923
            ],
            [
              -88.3104998,
              41.8698118
            ],
            [
              -88.310525,
              41.8696767
            ],
            [
              -88.3106075,
              41.8694757
            ],
            [
              -88.310607,
              41.869377
            ],
            [
              -88.3106631,
              41.8692419
            ],
            [
              -88.3108112,
              41.8686723
            ],
            [
              -88.3108029,
              41.8686227
            ],
            [
              -88.3107783,
              41.8685792
            ],
            [
              -88.3108802,
              41.8685193
            ],
            [
              -88.310909,
              41.8683483
            ],
            [
              -88.3109895,
              41.8682181
            ],
            [
              -88.311071,
              41.8679597
            ],
            [
              -88.3111203,
              41.8677483
            ],
            [
              -88.3111849,
              41.8674557
            ],
            [
              -88.3112653,
              41.8672479
            ],
            [
              -88.311378,
              41.866445
            ],
            [
              -88.3114117,
              41.8660522
            ],
            [
              -88.3114385,
              41.8656915
            ],
            [
              -88.311476,
              41.8655159
            ],
            [
              -88.3115282,
              41.8651506
            ],
            [
              -88.3115355,
              41.8650193
            ],
            [
              -88.3115487,
              41.8647829
            ],
            [
              -88.3115496,
              41.8647671
            ],
            [
              -88.3115872,
              41.8646752
            ],
            [
              -88.3115818,
              41.8644715
            ],
            [
              -88.3116623,
              41.8642717
            ],
            [
              -88.3116462,
              41.8641678
            ],
            [
              -88.311673,
              41.8638123
            ],
            [
              -88.3116489,
              41.8634527
            ],
            [
              -88.3117452,
              41.8633128
            ],
            [
              -88.3117694,
              41.8632249
            ],
            [
              -88.3117428,
              41.8631331
            ],
            [
              -88.3116637,
              41.8630552
            ],
            [
              -88.3115175,
              41.862426
            ],
            [
              -88.3113619,
              41.8617788
            ],
            [
              -88.3113941,
              41.8613872
            ],
            [
              -88.3113029,
              41.8608559
            ],
            [
              -88.3110776,
              41.8603327
            ],
            [
              -88.3110776,
              41.8599971
            ],
            [
              -88.3110239,
              41.8594857
            ],
            [
              -88.3110249,
              41.8589134
            ],
            [
              -88.3109451,
              41.8587236
            ],
            [
              -88.3109668,
              41.8585786
            ],
            [
              -88.3109849,
              41.858354
            ],
            [
              -88.3108911,
              41.8581493
            ],
            [
              -88.3107915,
              41.8578977
            ],
            [
              -88.3108039,
              41.8577804
            ],
            [
              -88.3108306,
              41.8576973
            ],
            [
              -88.3108396,
              41.8575901
            ],
            [
              -88.3108754,
              41.8575286
            ],
            [
              -88.3109192,
              41.8574431
            ],
            [
              -88.3109267,
              41.8573471
            ],
            [
              -88.3109146,
              41.8568971
            ],
            [
              -88.3108798,
              41.856375
            ],
            [
              -88.3108765,
              41.8563257
            ],
            [
              -88.3108407,
              41.8556461
            ],
            [
              -88.3108116,
              41.8553796
            ],
            [
              -88.3107578,
              41.8551948
            ],
            [
              -88.3107437,
              41.8551082
            ],
            [
              -88.3107728,
              41.8550502
            ],
            [
              -88.3107735,
              41.8549946
            ],
            [
              -88.3107282,
              41.854866
            ],
            [
              -88.3107191,
              41.8547106
            ],
            [
              -88.3107127,
              41.8546003
            ],
            [
              -88.3107212,
              41.8544465
            ],
            [
              -88.3106744,
              41.8543316
            ],
            [
              -88.310624,
              41.8542889
            ],
            [
              -88.3105769,
              41.854253
            ],
            [
              -88.3105634,
              41.854212
            ],
            [
              -88.3106206,
              41.8541513
            ],
            [
              -88.3106469,
              41.8540894
            ],
            [
              -88.3106003,
              41.8539728
            ],
            [
              -88.3105495,
              41.853814
            ],
            [
              -88.3105306,
              41.8536769
            ],
            [
              -88.3105321,
              41.8535398
            ],
            [
              -88.3105684,
              41.8533973
            ],
            [
              -88.3105796,
              41.8532667
            ],
            [
              -88.3105797,
              41.8529965
            ],
            [
              -88.3105427,
              41.852696
            ],
            [
              -88.3104871,
              41.8523768
            ],
            [
              -88.3104726,
              41.8521433
            ],
            [
              -88.3104565,
              41.8519616
            ],
            [
              -88.3103695,
              41.8518062
            ],
            [
              -88.3102994,
              41.8517265
            ],
            [
              -88.3102529,
              41.8516918
            ],
            [
              -88.3101983,
              41.8516644
            ],
            [
              -88.3101608,
              41.8516217
            ],
            [
              -88.3100963,
              41.8515677
            ],
            [
              -88.3100386,
              41.8515335
            ],
            [
              -88.3099754,
              41.8515021
            ],
            [
              -88.3099026,
              41.8514874
            ],
            [
              -88.3098597,
              41.8514821
            ],
            [
              -88.3097918,
              41.8514839
            ],
            [
              -88.3097201,
              41.8514931
            ],
            [
              -88.3096195,
              41.8515206
            ],
            [
              -88.3095514,
              41.8515508
            ],
            [
              -88.3095149,
              41.8515845
            ],
            [
              -88.3094738,
              41.8516419
            ],
            [
              -88.309451,
              41.8517011
            ],
            [
              -88.3094668,
              41.8517928
            ],
            [
              -88.3094936,
              41.8518712
            ],
            [
              -88.3095244,
              41.8519112
            ],
            [
              -88.3096156,
              41.8520016
            ],
            [
              -88.3096518,
              41.8520795
            ],
            [
              -88.3096619,
              41.8521484
            ],
            [
              -88.3096451,
              41.8521969
            ],
            [
              -88.3096196,
              41.8522403
            ],
            [
              -88.3095177,
              41.8523407
            ],
            [
              -88.3094969,
              41.8523847
            ],
            [
              -88.3094822,
              41.8524256
            ],
            [
              -88.3095003,
              41.8524716
            ],
            [
              -88.3095264,
              41.8525305
            ],
            [
              -88.3095331,
              41.8525869
            ],
            [
              -88.3095278,
              41.8526439
            ],
            [
              -88.3095264,
              41.8527298
            ],
            [
              -88.3095573,
              41.8528661
            ],
            [
              -88.3095648,
              41.852973
            ],
            [
              -88.3095573,
              41.8530525
            ],
            [
              -88.3095593,
              41.8531169
            ],
            [
              -88.3095995,
              41.8532058
            ],
            [
              -88.3096056,
              41.8532602
            ],
            [
              -88.3095916,
              41.8533164
            ],
            [
              -88.3095546,
              41.8533421
            ],
            [
              -88.309511,
              41.8533546
            ],
            [
              -88.3093526,
              41.8533822
            ],
            [
              -88.3093384,
              41.8533938
            ],
            [
              -88.3093474,
              41.8534066
            ],
            [
              -88.3094889,
              41.853452
            ],
            [
              -88.3095224,
              41.8535035
            ],
            [
              -88.3095459,
              41.8536153
            ],
            [
              -88.3095184,
              41.8538146
            ],
            [
              -88.3094996,
              41.853962
            ],
            [
              -88.3095499,
              41.8542494
            ],
            [
              -88.3095714,
              41.8543024
            ],
            [
              -88.309625,
              41.8543573
            ],
            [
              -88.3097015,
              41.8544252
            ],
            [
              -88.3097792,
              41.8545181
            ],
            [
              -88.3098034,
              41.8547009
            ],
            [
              -88.3098759,
              41.8549107
            ],
            [
              -88.3098664,
              41.8550001
            ],
            [
              -88.3098872,
              41.8550321
            ],
            [
              -88.3099569,
              41.85509
            ],
            [
              -88.3099549,
              41.8551564
            ],
            [
              -88.3099247,
              41.8551854
            ],
            [
              -88.3098862,
              41.8551899
            ],
            [
              -88.3098248,
              41.8551779
            ],
            [
              -88.3097973,
              41.8551499
            ],
            [
              -88.3097906,
              41.855102
            ],
            [
              -88.3097418,
              41.8550705
            ],
            [
              -88.30962,
              41.8550415
            ],
            [
              -88.3094951,
              41.8550345
            ],
            [
              -88.3092512,
              41.8550296
            ],
            [
              -88.3092003,
              41.8550108
            ],
            [
              -88.3089347,
              41.8549127
            ],
            [
              -88.308767,
              41.8548518
            ],
            [
              -88.3086155,
              41.8547908
            ],
            [
              -88.3085082,
              41.8547159
            ],
            [
              -88.3084103,
              41.854602
            ],
            [
              -88.3083293,
              41.854548
            ],
            [
              -88.3082078,
              41.8544672
            ],
            [
              -88.3081434,
              41.8543853
            ],
            [
              -88.3081441,
              41.8542454
            ],
            [
              -88.3080361,
              41.8541126
            ],
            [
              -88.3079463,
              41.8539427
            ],
            [
              -88.3079423,
              41.8539358
            ],
            [
              -88.3079409,
              41.8538568
            ],
            [
              -88.3079516,
              41.8538009
            ],
            [
              -88.3080207,
              41.8537589
            ],
            [
              -88.3080656,
              41.8537335
            ],
            [
              -88.3081005,
              41.853699
            ],
            [
              -88.3080925,
              41.8536526
            ],
            [
              -88.3080703,
              41.8535721
            ],
            [
              -88.3080636,
              41.8535352
            ],
            [
              -88.3080784,
              41.8535062
            ],
            [
              -88.3082259,
              41.8534373
            ],
            [
              -88.3082567,
              41.8534203
            ],
            [
              -88.3082517,
              41.8534069
            ],
            [
              -88.3082487,
              41.8533988
            ],
            [
              -88.3081971,
              41.8533724
            ],
            [
              -88.3080465,
              41.8533104
            ],
            [
              -88.3079459,
              41.8532555
            ],
            [
              -88.3078185,
              41.8531596
            ],
            [
              -88.3077645,
              41.8530744
            ],
            [
              -88.307781,
              41.8529968
            ],
            [
              -88.3078065,
              41.8529428
            ],
            [
              -88.3078507,
              41.852729
            ],
            [
              -88.3078239,
              41.8524224
            ],
            [
              -88.3077783,
              41.851836
            ],
            [
              -88.3077501,
              41.8517041
            ],
            [
              -88.3077381,
              41.8516402
            ],
            [
              -88.3077542,
              41.8515383
            ],
            [
              -88.3077475,
              41.8514634
            ],
            [
              -88.3076817,
              41.8513954
            ],
            [
              -88.3076167,
              41.8512666
            ],
            [
              -88.307591,
              41.8511326
            ],
            [
              -88.3075482,
              41.8508353
            ],
            [
              -88.3075111,
              41.8505953
            ],
            [
              -88.307493,
              41.8504554
            ],
            [
              -88.3074932,
              41.850337
            ],
            [
              -88.3075137,
              41.8501959
            ],
            [
              -88.3075592,
              41.8501075
            ],
            [
              -88.3075596,
              41.849904
            ],
            [
              -88.3068372,
              41.8499025
            ],
            [
              -88.3068443,
              41.8499713
            ],
            [
              -88.3068562,
              41.850073
            ],
            [
              -88.3068826,
              41.8504434
            ],
            [
              -88.3067696,
              41.851277
            ],
            [
              -88.3067986,
              41.8513079
            ],
            [
              -88.3068097,
              41.8513367
            ],
            [
              -88.3067952,
              41.8513731
            ],
            [
              -88.3067679,
              41.851411
            ],
            [
              -88.3067318,
              41.8516644
            ],
            [
              -88.3067242,
              41.8520747
            ],
            [
              -88.3067705,
              41.8525075
            ],
            [
              -88.306929,
              41.8529784
            ],
            [
              -88.3071563,
              41.8535081
            ],
            [
              -88.3073541,
              41.8540472
            ],
            [
              -88.3074852,
              41.8541904
            ],
            [
              -88.3077089,
              41.854596
            ],
            [
              -88.3077991,
              41.8548237
            ],
            [
              -88.3079662,
              41.8550625
            ],
            [
              -88.3080038,
              41.8553462
            ],
            [
              -88.3078804,
              41.8554301
            ],
            [
              -88.3078953,
              41.8555809
            ],
            [
              -88.3078332,
              41.8556787
            ],
            [
              -88.3078453,
              41.8558775
            ],
            [
              -88.3078949,
              41.8559404
            ],
            [
              -88.3079153,
              41.8562153
            ],
            [
              -88.3079928,
              41.8564249
            ],
            [
              -88.308036,
              41.8566048
            ],
            [
              -88.3082344,
              41.8570363
            ],
            [
              -88.3083095,
              41.8573519
            ],
            [
              -88.3083632,
              41.8575917
            ],
            [
              -88.3084812,
              41.8578194
            ],
            [
              -88.3086153,
              41.858163
            ],
            [
              -88.3087762,
              41.8584187
            ],
            [
              -88.3090285,
              41.8589125
            ],
            [
              -88.3090498,
              41.8589541
            ],
            [
              -88.3092108,
              41.8593936
            ],
            [
              -88.3091998,
              41.8596003
            ],
            [
              -88.3092108,
              41.8597252
            ],
            [
              -88.3091732,
              41.8598131
            ],
            [
              -88.3092322,
              41.8602646
            ],
            [
              -88.3091678,
              41.8606361
            ],
            [
              -88.30922,
              41.860995
            ],
            [
              -88.30925,
              41.861032
            ],
            [
              -88.309298,
              41.861061
            ],
            [
              -88.309358,
              41.861134
            ],
            [
              -88.309392,
              41.86115
            ],
            [
              -88.309429,
              41.861185
            ],
            [
              -88.309437,
              41.861203
            ],
            [
              -88.309432,
              41.861253
            ],
            [
              -88.309446,
              41.861567
            ],
            [
              -88.309441,
              41.861616
            ],
            [
              -88.309457,
              41.861726
            ],
            [
              -88.309461,
              41.861851
            ],
            [
              -88.309448,
              41.861933
            ],
            [
              -88.309452,
              41.861994
            ],
            [
              -88.309576,
              41.862391
            ],
            [
              -88.309593,
              41.862498
            ],
            [
              -88.309616,
              41.862579
            ],
            [
              -88.309661,
              41.86265
            ],
            [
              -88.309719,
              41.862715
            ],
            [
              -88.309839,
              41.862807
            ],
            [
              -88.309895,
              41.862857
            ],
            [
              -88.309925,
              41.8629
            ],
            [
              -88.309938,
              41.862956
            ],
            [
              -88.3099373,
              41.8629932
            ],
            [
              -88.309935,
              41.863118
            ],
            [
              -88.309918,
              41.863306
            ],
            [
              -88.309871,
              41.863487
            ],
            [
              -88.309855,
              41.863733
            ],
            [
              -88.30981,
              41.864133
            ],
            [
              -88.309714,
              41.86463
            ],
            [
              -88.30971,
              41.8646689
            ],
            [
              -88.3097487,
              41.8653779
            ],
            [
              -88.3097349,
              41.8656703
            ],
            [
              -88.3097257,
              41.8658657
            ],
            [
              -88.3096614,
              41.8668085
            ],
            [
              -88.309361,
              41.8676314
            ],
            [
              -88.309141,
              41.8686062
            ],
            [
              -88.3089855,
              41.8689777
            ],
            [
              -88.3088835,
              41.8691734
            ],
            [
              -88.3085778,
              41.8695609
            ],
            [
              -88.3079984,
              41.8703918
            ],
            [
              -88.3075049,
              41.8710949
            ],
            [
              -88.3073225,
              41.8715382
            ],
            [
              -88.3070918,
              41.8721374
            ],
            [
              -88.307065,
              41.8727526
            ],
            [
              -88.3071347,
              41.8732519
            ],
            [
              -88.307022,
              41.8737392
            ],
            [
              -88.3071642,
              41.8737932
            ],
            [
              -88.3074674,
              41.8734196
            ],
            [
              -88.3076068,
              41.8733997
            ],
            [
              -88.3076068,
              41.8735635
            ],
            [
              -88.3075853,
              41.8737872
            ],
            [
              -88.3074566,
              41.8740308
            ],
            [
              -88.3072206,
              41.8743943
            ],
            [
              -88.3069255,
              41.8748577
            ],
            [
              -88.3068021,
              41.875305
            ],
            [
              -88.3063193,
              41.8760759
            ],
            [
              -88.3059546,
              41.8764754
            ],
            [
              -88.3056381,
              41.8768269
            ],
            [
              -88.3053967,
              41.8768748
            ],
            [
              -88.3051284,
              41.8772582
            ],
            [
              -88.3047958,
              41.8776057
            ],
            [
              -88.3047221,
              41.8776423
            ],
            [
              -88.3045223,
              41.8777415
            ],
            [
              -88.3043935,
              41.8777176
            ],
            [
              -88.3042433,
              41.878081
            ],
            [
              -88.3040556,
              41.8788799
            ],
            [
              -88.3040556,
              41.8791555
            ],
            [
              -88.3040073,
              41.880154
            ],
            [
              -88.3040019,
              41.8807051
            ],
            [
              -88.3038088,
              41.8810726
            ],
            [
              -88.303412,
              41.8816168
            ],
            [
              -88.3034011,
              41.8818075
            ],
            [
              -88.3032984,
              41.8819103
            ],
            [
              -88.3032662,
              41.8820245
            ],
            [
              -88.3030202,
              41.8820351
            ],
            [
              -88.3023443,
              41.882099
            ],
            [
              -88.3018669,
              41.8821589
            ],
            [
              -88.3015504,
              41.8824026
            ],
            [
              -88.3012446,
              41.8828299
            ],
            [
              -88.3010568,
              41.8833491
            ],
            [
              -88.3008798,
              41.8839003
            ],
            [
              -88.3008671,
              41.8841642
            ],
            [
              -88.3008732,
              41.88433
            ],
            [
              -88.3009172,
              41.884473
            ],
            [
              -88.3009123,
              41.8846769
            ],
            [
              -88.3009159,
              41.8847741
            ],
            [
              -88.300912,
              41.884945
            ],
            [
              -88.3009317,
              41.8851433
            ],
            [
              -88.3009477,
              41.8852233
            ],
            [
              -88.3010515,
              41.8856495
            ],
            [
              -88.3012178,
              41.8862206
            ],
            [
              -88.3013091,
              41.8865039
            ],
            [
              -88.3013675,
              41.8866292
            ],
            [
              -88.3014324,
              41.8866695
            ],
            [
              -88.3015001,
              41.8866679
            ],
            [
              -88.3015564,
              41.8866304
            ],
            [
              -88.3016111,
              41.8865305
            ],
            [
              -88.3016877,
              41.8864516
            ],
            [
              -88.3017279,
              41.8864314
            ],
            [
              -88.3017704,
              41.8864185
            ],
            [
              -88.3018234,
              41.8864115
            ],
            [
              -88.3019016,
              41.886418
            ],
            [
              -88.3019558,
              41.8864347
            ],
            [
              -88.3019926,
              41.886456
            ],
            [
              -88.3020308,
              41.8864812
            ],
            [
              -88.3020489,
              41.8865065
            ],
            [
              -88.3020392,
              41.8865336
            ],
            [
              -88.3020346,
              41.8865865
            ],
            [
              -88.3020274,
              41.8866697
            ],
            [
              -88.3020132,
              41.8867801
            ],
            [
              -88.3020075,
              41.8868627
            ],
            [
              -88.3019897,
              41.8869118
            ],
            [
              -88.3019656,
              41.886942
            ],
            [
              -88.301934,
              41.8869721
            ],
            [
              -88.3019125,
              41.8870021
            ],
            [
              -88.3018694,
              41.8870376
            ],
            [
              -88.3018316,
              41.887047
            ],
            [
              -88.3017987,
              41.887163
            ],
            [
              -88.3017608,
              41.8872973
            ],
            [
              -88.3017403,
              41.8873699
            ],
            [
              -88.3015631,
              41.8875339
            ],
            [
              -88.301465,
              41.8875884
            ],
            [
              -88.3012932,
              41.88785
            ],
            [
              -88.3012749,
              41.8879321
            ],
            [
              -88.3013101,
              41.8879776
            ],
            [
              -88.3012991,
              41.8880274
            ],
            [
              -88.3012811,
              41.8880691
            ],
            [
              -88.301223,
              41.8880978
            ],
            [
              -88.3011767,
              41.8882285
            ],
            [
              -88.3011509,
              41.888335
            ],
            [
              -88.3011294,
              41.8883327
            ],
            [
              -88.3011043,
              41.8883309
            ],
            [
              -88.3010193,
              41.8884291
            ],
            [
              -88.3009198,
              41.8886248
            ],
            [
              -88.3008691,
              41.8887246
            ],
            [
              -88.300853,
              41.8891359
            ],
            [
              -88.300853,
              41.8895433
            ],
            [
              -88.3007082,
              41.890314
            ],
            [
              -88.3006996,
              41.8904032
            ],
            [
              -88.3006655,
              41.8907557
            ],
            [
              -88.3006599,
              41.8908132
            ],
            [
              -88.3005204,
              41.8910088
            ],
            [
              -88.3004668,
              41.8914242
            ],
            [
              -88.3003112,
              41.892123
            ],
            [
              -88.3003088,
              41.8921473
            ],
            [
              -88.3002138,
              41.8927329
            ],
            [
              -88.300263,
              41.8930506
            ],
            [
              -88.3003756,
              41.8931692
            ],
            [
              -88.3004794,
              41.8933783
            ],
            [
              -88.3005436,
              41.8936098
            ],
            [
              -88.3006275,
              41.8938292
            ],
            [
              -88.3006725,
              41.8940831
            ],
            [
              -88.3006934,
              41.8943111
            ],
            [
              -88.3007372,
              41.8944794
            ],
            [
              -88.3006231,
              41.8946182
            ],
            [
              -88.3004583,
              41.8948185
            ],
            [
              -88.3004943,
              41.8949758
            ],
            [
              -88.30058,
              41.8950298
            ],
            [
              -88.3006001,
              41.8951728
            ],
            [
              -88.3006151,
              41.8954127
            ],
            [
              -88.3006145,
              41.8956874
            ],
            [
              -88.3006825,
              41.8959515
            ],
            [
              -88.3007111,
              41.8960626
            ],
            [
              -88.3006957,
              41.8962202
            ],
            [
              -88.3007385,
              41.8964219
            ],
            [
              -88.3008352,
              41.8966172
            ],
            [
              -88.3009732,
              41.8968049
            ],
            [
              -88.3010589,
              41.8969307
            ],
            [
              -88.3010823,
              41.8971441
            ],
            [
              -88.3011195,
              41.8973207
            ],
            [
              -88.3012143,
              41.8974282
            ],
            [
              -88.3013304,
              41.8974658
            ],
            [
              -88.3013282,
              41.8975372
            ],
            [
              -88.3013486,
              41.897625
            ],
            [
              -88.3014115,
              41.8976963
            ],
            [
              -88.3014915,
              41.897782
            ],
            [
              -88.301556,
              41.8978624
            ],
            [
              -88.3016002,
              41.8979064
            ],
            [
              -88.3016443,
              41.8979596
            ],
            [
              -88.3017006,
              41.897978
            ],
            [
              -88.301803,
              41.8979802
            ],
            [
              -88.3018852,
              41.8979686
            ],
            [
              -88.3019396,
              41.8979215
            ],
            [
              -88.3019569,
              41.8978634
            ],
            [
              -88.3019443,
              41.897798
            ],
            [
              -88.3019367,
              41.8977313
            ],
            [
              -88.3019419,
              41.8976996
            ],
            [
              -88.3019829,
              41.8976994
            ],
            [
              -88.3020453,
              41.8977416
            ],
            [
              -88.3021029,
              41.8977906
            ],
            [
              -88.3021341,
              41.8978743
            ],
            [
              -88.3022207,
              41.8979683
            ],
            [
              -88.3022456,
              41.8980443
            ],
            [
              -88.3022551,
              41.8981103
            ],
            [
              -88.3023175,
              41.8982005
            ],
            [
              -88.3023051,
              41.8987769
            ],
            [
              -88.3023077,
              41.8990947
            ],
            [
              -88.302106,
              41.8995867
            ],
            [
              -88.3021101,
              41.8997125
            ],
            [
              -88.3020374,
              41.899817
            ],
            [
              -88.3020857,
              41.8998995
            ],
            [
              -88.3020654,
              41.9001475
            ],
            [
              -88.3020382,
              41.9003952
            ],
            [
              -88.3020712,
              41.9006164
            ],
            [
              -88.3021663,
              41.9009757
            ],
            [
              -88.3022381,
              41.9011167
            ],
            [
              -88.3023482,
              41.9012555
            ],
            [
              -88.3024742,
              41.9014693
            ],
            [
              -88.3025502,
              41.901641
            ],
            [
              -88.3026786,
              41.901791
            ],
            [
              -88.3034279,
              41.9027243
            ],
            [
              -88.3039432,
              41.9035451
            ],
            [
              -88.304224,
              41.9039156
            ],
            [
              -88.3043238,
              41.9040698
            ],
            [
              -88.304533,
              41.9043573
            ],
            [
              -88.3048119,
              41.9045768
            ],
            [
              -88.3049246,
              41.9047565
            ],
            [
              -88.3054128,
              41.9052915
            ],
            [
              -88.3057293,
              41.9057626
            ],
            [
              -88.3059707,
              41.9062696
            ],
            [
              -88.3061477,
              41.9064932
            ],
            [
              -88.3063247,
              41.9067687
            ],
            [
              -88.3066197,
              41.9071879
            ],
            [
              -88.3072367,
              41.9079265
            ],
            [
              -88.307816,
              41.9084574
            ],
            [
              -88.3082716,
              41.9089022
            ],
            [
              -88.3087163,
              41.9092513
            ],
            [
              -88.3087243,
              41.9092577
            ],
            [
              -88.3091357,
              41.9095866
            ],
            [
              -88.3100304,
              41.9103225
            ],
            [
              -88.3108769,
              41.9111215
            ],
            [
              -88.310955,
              41.911167
            ],
            [
              -88.3112251,
              41.9114075
            ],
            [
              -88.311625,
              41.9118072
            ],
            [
              -88.3117051,
              41.9118851
            ],
            [
              -88.3118487,
              41.9120607
            ],
            [
              -88.3120467,
              41.9122586
            ],
            [
              -88.312061,
              41.9122734
            ],
            [
              -88.3125868,
              41.9128174
            ],
            [
              -88.312619,
              41.9128526
            ],
            [
              -88.3130355,
              41.9133061
            ],
            [
              -88.3130388,
              41.9133283
            ],
            [
              -88.3130789,
              41.9133219
            ],
            [
              -88.3130832,
              41.9133366
            ],
            [
              -88.3131105,
              41.9133322
            ],
            [
              -88.3131958,
              41.9136253
            ],
            [
              -88.3132005,
              41.913638
            ],
            [
              -88.3132324,
              41.9137236
            ],
            [
              -88.3132703,
              41.9138234
            ],
            [
              -88.3132775,
              41.9138423
            ],
            [
              -88.3133044,
              41.9139047
            ],
            [
              -88.3133294,
              41.9139965
            ],
            [
              -88.3133374,
              41.9140209
            ],
            [
              -88.3133512,
              41.9140375
            ],
            [
              -88.3133697,
              41.9140516
            ],
            [
              -88.3133798,
              41.914066
            ],
            [
              -88.3133902,
              41.9140808
            ],
            [
              -88.3133995,
              41.9141053
            ],
            [
              -88.3133994,
              41.9141253
            ],
            [
              -88.3134348,
              41.9141631
            ],
            [
              -88.3134293,
              41.9141958
            ],
            [
              -88.31353,
              41.9142577
            ],
            [
              -88.3135463,
              41.9142733
            ],
            [
              -88.3135359,
              41.9142989
            ],
            [
              -88.3135034,
              41.9143214
            ],
            [
              -88.3135304,
              41.9143598
            ],
            [
              -88.3134432,
              41.9144087
            ],
            [
              -88.3134747,
              41.9145302
            ],
            [
              -88.3135591,
              41.9146389
            ],
            [
              -88.3136512,
              41.914725
            ],
            [
              -88.3137146,
              41.9148093
            ],
            [
              -88.3137472,
              41.9148864
            ],
            [
              -88.3138147,
              41.9149864
            ],
            [
              -88.3138545,
              41.9150453
            ],
            [
              -88.3139133,
              41.9151321
            ],
            [
              -88.3139743,
              41.915201
            ],
            [
              -88.3140214,
              41.9151771
            ],
            [
              -88.3142224,
              41.9154525
            ],
            [
              -88.3143633,
              41.9157598
            ],
            [
              -88.3142908,
              41.9162669
            ],
            [
              -88.3142999,
              41.9163216
            ],
            [
              -88.31601,
              41.9162658
            ],
            [
              -88.3159404,
              41.9160691
            ],
            [
              -88.3159836,
              41.9159975
            ],
            [
              -88.3162068,
              41.91595
            ],
            [
              -88.3162138,
              41.915935
            ],
            [
              -88.3162056,
              41.9159245
            ],
            [
              -88.3161981,
              41.9159148
            ],
            [
              -88.3161754,
              41.9159101
            ],
            [
              -88.3160376,
              41.9159392
            ],
            [
              -88.3160137,
              41.9159424
            ],
            [
              -88.3159878,
              41.9159408
            ],
            [
              -88.3159661,
              41.9159296
            ],
            [
              -88.3159532,
              41.9159126
            ],
            [
              -88.3159434,
              41.9158996
            ],
            [
              -88.3158562,
              41.9157127
            ],
            [
              -88.3157881,
              41.9155437
            ],
            [
              -88.3157344,
              41.9153429
            ],
            [
              -88.3156999,
              41.9153038
            ],
            [
              -88.3156561,
              41.9151315
            ],
            [
              -88.3156318,
              41.9151053
            ],
            [
              -88.315592,
              41.9150324
            ],
            [
              -88.3155363,
              41.9149234
            ],
            [
              -88.3154783,
              41.9148441
            ],
            [
              -88.3154394,
              41.9147748
            ],
            [
              -88.3152994,
              41.9145504
            ],
            [
              -88.3152422,
              41.9144195
            ],
            [
              -88.3152216,
              41.9143974
            ],
            [
              -88.3151805,
              41.914395
            ],
            [
              -88.3151617,
              41.9143777
            ],
            [
              -88.3151175,
              41.9143759
            ],
            [
              -88.3149441,
              41.9142531
            ],
            [
              -88.3149418,
              41.9142167
            ],
            [
              -88.3149182,
              41.9142012
            ],
            [
              -88.3149155,
              41.9141791
            ],
            [
              -88.3149386,
              41.9141606
            ],
            [
              -88.3147711,
              41.9140259
            ],
            [
              -88.3147487,
              41.9139991
            ],
            [
              -88.3147378,
              41.9139762
            ],
            [
              -88.3145826,
              41.9139997
            ],
            [
              -88.3145404,
              41.9139972
            ],
            [
              -88.3145271,
              41.9139578
            ],
            [
              -88.3145093,
              41.9139039
            ],
            [
              -88.3144788,
              41.9137866
            ],
            [
              -88.3144932,
              41.913782
            ],
            [
              -88.3144612,
              41.913667
            ],
            [
              -88.3142778,
              41.9136924
            ],
            [
              -88.3142682,
              41.9136726
            ],
            [
              -88.3142271,
              41.9135875
            ],
            [
              -88.3141816,
              41.9134931
            ],
            [
              -88.3141748,
              41.9134791
            ],
            [
              -88.314201,
              41.9134756
            ],
            [
              -88.314195,
              41.9134616
            ],
            [
              -88.3141917,
              41.9134621
            ],
            [
              -88.3141217,
              41.9134733
            ],
            [
              -88.3141163,
              41.9134581
            ],
            [
              -88.3140051,
              41.9134105
            ],
            [
              -88.3139441,
              41.9133305
            ],
            [
              -88.3138806,
              41.9133268
            ],
            [
              -88.3138547,
              41.9133241
            ],
            [
              -88.3138334,
              41.9133117
            ],
            [
              -88.3137173,
              41.9131996
            ],
            [
              -88.3135614,
              41.9130811
            ],
            [
              -88.3135182,
              41.9130406
            ],
            [
              -88.3134809,
              41.9130101
            ],
            [
              -88.3134462,
              41.9129746
            ],
            [
              -88.3134019,
              41.9129258
            ],
            [
              -88.3133728,
              41.9128916
            ],
            [
              -88.3133119,
              41.9128403
            ],
            [
              -88.3132833,
              41.9128213
            ],
            [
              -88.3131772,
              41.9127136
            ],
            [
              -88.3131465,
              41.9126719
            ],
            [
              -88.3131361,
              41.9126406
            ],
            [
              -88.3131407,
              41.9126171
            ],
            [
              -88.3131096,
              41.9126054
            ],
            [
              -88.313081,
              41.9125744
            ],
            [
              -88.3130561,
              41.9125293
            ],
            [
              -88.3130432,
              41.9124901
            ],
            [
              -88.3129993,
              41.9123325
            ],
            [
              -88.3129834,
              41.9122752
            ],
            [
              -88.3129531,
              41.9121963
            ],
            [
              -88.3129127,
              41.9121368
            ],
            [
              -88.3128862,
              41.9121027
            ]
          ],
          [
            [
              -88.3113926,
              41.9107275
            ],
            [
              -88.3113626,
              41.9107593
            ],
            [
              -88.3113119,
              41.9107593
            ],
            [
              -88.3112802,
              41.9107334
            ],
            [
              -88.3112849,
              41.9106956
            ],
            [
              -88.3113261,
              41.9106768
            ],
            [
              -88.3113752,
              41.9106909
            ],
            [
              -88.3113926,
              41.9107275
            ]
          ],
          [
            [
              -88.3018669,
              41.8859451
            ],
            [
              -88.3016952,
              41.8859091
            ],
            [
              -88.3015235,
              41.8857973
            ],
            [
              -88.3014002,
              41.8856415
            ],
            [
              -88.3013358,
              41.8854379
            ],
            [
              -88.3013356,
              41.8854217
            ],
            [
              -88.3013304,
              41.8850545
            ],
            [
              -88.3013787,
              41.8846511
            ],
            [
              -88.301368,
              41.8842517
            ],
            [
              -88.3013841,
              41.8838603
            ],
            [
              -88.3015887,
              41.8832167
            ],
            [
              -88.3016913,
              41.8830907
            ],
            [
              -88.3019534,
              41.8827794
            ],
            [
              -88.3021045,
              41.8826698
            ],
            [
              -88.3022682,
              41.8825921
            ],
            [
              -88.3024996,
              41.8825412
            ],
            [
              -88.302686,
              41.8824641
            ],
            [
              -88.3030235,
              41.8823643
            ],
            [
              -88.3030962,
              41.8822942
            ],
            [
              -88.3032206,
              41.8823011
            ],
            [
              -88.3032723,
              41.8823866
            ],
            [
              -88.3032563,
              41.8825903
            ],
            [
              -88.3031275,
              41.88281
            ],
            [
              -88.3029344,
              41.883449
            ],
            [
              -88.3026447,
              41.8838523
            ],
            [
              -88.302473,
              41.8844634
            ],
            [
              -88.3023979,
              41.8849866
            ],
            [
              -88.3023282,
              41.8855896
            ],
            [
              -88.3021941,
              41.8858372
            ],
            [
              -88.30208,
              41.8859171
            ],
            [
              -88.3019681,
              41.8859318
            ],
            [
              -88.3018669,
              41.8859451
            ]
          ],
          [
            [
              -88.3027614,
              41.8864507
            ],
            [
              -88.3027748,
              41.8864827
            ],
            [
              -88.3027695,
              41.8865086
            ],
            [
              -88.3027373,
              41.8865326
            ],
            [
              -88.302697,
              41.8865326
            ],
            [
              -88.3026622,
              41.8865206
            ],
            [
              -88.3026514,
              41.8864926
            ],
            [
              -88.3026702,
              41.8864567
            ],
            [
              -88.3027104,
              41.8864407
            ],
            [
              -88.3027614,
              41.8864507
            ]
          ],
          [
            [
              -88.3026032,
              41.886914
            ],
            [
              -88.3025656,
              41.8869339
            ],
            [
              -88.3025281,
              41.8869319
            ],
            [
              -88.3025039,
              41.886908
            ],
            [
              -88.3025093,
              41.8868181
            ],
            [
              -88.3025415,
              41.8867063
            ],
            [
              -88.3025683,
              41.8866624
            ],
            [
              -88.3026005,
              41.8866424
            ],
            [
              -88.30263,
              41.8866524
            ],
            [
              -88.3026514,
              41.8866843
            ],
            [
              -88.3026434,
              41.8867383
            ],
            [
              -88.3026032,
              41.886914
            ]
          ],
          [
            [
              -88.301738,
              41.8862266
            ],
            [
              -88.3016709,
              41.8861807
            ],
            [
              -88.3016629,
              41.8860868
            ],
            [
              -88.3016763,
              41.8860189
            ],
            [
              -88.3017326,
              41.885995
            ],
            [
              -88.3018131,
              41.885995
            ],
            [
              -88.3018506,
              41.8860229
            ],
            [
              -88.3018801,
              41.8860928
            ],
            [
              -88.301848,
              41.8861927
            ],
            [
              -88.3018319,
              41.8862226
            ],
            [
              -88.301738,
              41.8862266
            ]
          ],
          [
            [
              -88.3099658,
              41.8570028
            ],
            [
              -88.3098103,
              41.8571186
            ],
            [
              -88.3097164,
              41.8572006
            ],
            [
              -88.3096198,
              41.8572365
            ],
            [
              -88.3095528,
              41.8572365
            ],
            [
              -88.3094321,
              41.8572145
            ],
            [
              -88.3093114,
              41.8571726
            ],
            [
              -88.3092309,
              41.8571226
            ],
            [
              -88.3092148,
              41.8570627
            ],
            [
              -88.3092444,
              41.8570083
            ],
            [
              -88.3092612,
              41.8569443
            ],
            [
              -88.3092789,
              41.8568498
            ],
            [
              -88.3092638,
              41.8567664
            ],
            [
              -88.3091807,
              41.8566302
            ],
            [
              -88.3090626,
              41.8564512
            ],
            [
              -88.3090167,
              41.8562263
            ],
            [
              -88.3090024,
              41.8560677
            ],
            [
              -88.3089655,
              41.8559027
            ],
            [
              -88.3091387,
              41.855999
            ],
            [
              -88.3094115,
              41.8561429
            ],
            [
              -88.309672,
              41.8563135
            ],
            [
              -88.3098188,
              41.8564634
            ],
            [
              -88.3099335,
              41.8566195
            ],
            [
              -88.3099856,
              41.8567678
            ],
            [
              -88.3099752,
              41.8568338
            ],
            [
              -88.3099926,
              41.8568729
            ],
            [
              -88.3100195,
              41.8569149
            ],
            [
              -88.3100114,
              41.8569608
            ],
            [
              -88.3099658,
              41.8570028
            ]
          ],
          [
            [
              -88.3090665,
              41.871465
            ],
            [
              -88.3088664,
              41.8712138
            ],
            [
              -88.3086696,
              41.8709758
            ],
            [
              -88.3088245,
              41.8704277
            ],
            [
              -88.3089451,
              41.8702405
            ],
            [
              -88.3089936,
              41.8701947
            ],
            [
              -88.3090476,
              41.8701397
            ],
            [
              -88.3091043,
              41.870082
            ],
            [
              -88.3091786,
              41.8699843
            ],
            [
              -88.309302,
              41.8698565
            ],
            [
              -88.3093824,
              41.8698365
            ],
            [
              -88.309479,
              41.8699484
            ],
            [
              -88.3094951,
              41.8700323
            ],
            [
              -88.3096775,
              41.8701122
            ],
            [
              -88.3097633,
              41.8701721
            ],
            [
              -88.3097526,
              41.8703638
            ],
            [
              -88.3096077,
              41.8705396
            ],
            [
              -88.309538,
              41.8707393
            ],
            [
              -88.30942,
              41.8709111
            ],
            [
              -88.3092429,
              41.8711588
            ],
            [
              -88.3092027,
              41.8713969
            ],
            [
              -88.3090665,
              41.871465
            ]
          ]
        ]
      },
      "id": "relation/1651016"
    }
  ]
}